[{"OBJECT_NAME":"STARLINK-3397","OBJECT_ID":"2022-005M","EPOCH":"2026-03-09T21:06:18.379296","MEAN_MOTION":15.08815755,"ECCENTRICITY":0.00013452,"INCLINATION":53.2187,"RA_OF_ASC_NODE":288.2684,"ARG_OF_PERICENTER":114.7264,"MEAN_ANOMALY":245.3868,"EPHEMERIS_TYPE":0,"CLASSIFICATION_TYPE":"U","NORAD_CAT_ID":51115,"ELEMENT_SET_NO":999,"REV_AT_EPOCH":22890,"BSTAR":6.9190501e-5,"MEAN_MOTION_DOT":8.13e-6,"MEAN_MOTION_DDOT":0},{"OBJECT_NAME":"FENGYUN 1C DEB","OBJECT_ID":"1999-025DZE","EPOCH":"2026-02-28T06:22:54.338880","MEAN_MOTION":15.08907087,"ECCENTRICITY":0.00232464,"INCLINATION":99.4552,"RA_OF_ASC_NODE":173.2368,"ARG_OF_PERICENTER":218.3208,"MEAN_ANOMALY":141.6363,"EPHEMERIS_TYPE":0,"CLASSIFICATION_TYPE":"U","NORAD_CAT_ID":36684,"ELEMENT_SET_NO":999,"REV_AT_EPOCH":67065,"BSTAR":0.0055309563,"MEAN_MOTION_DOT":0.00088715,"MEAN_MOTION_DDOT":0}]
